NORAD_CAT_ID,OBJECT_NAME,OBJECT_TYPE,EPOCH,MEAN_MOTION,ECCENTRICITY,INCLINATION,RA_OF_ASC_NODE,ARG_OF_PERICENTER,MEAN_ANOMALY,BSTAR,MEAN_MOTION_DOT,MEAN_MOTION_DDOT,TLE_LINE0,TLE_LINE1,TLE_LINE2,SEMIMAJOR_AXIS,PERIOD,APOGEE,PERIGEE,DECAYED
53004.0,STARLINK-4253,PAYLOAD,2023-04-09 16:05:29,15.08836149,0.0001753,53.2161,195.1759,103.2945,256.8243,-9.329e-05,-1.772e-05,0.0,0 STARLINK-4253,1 53004U 22076U   23099.67048333 -.00001772  00000-0 -93290-4 0  9992,2 53004  53.2161 195.1759 0001753 103.2945 256.8243 15.08836149 42066,6917.892,95.438,540.97,538.544,0.0
53004.0,STARLINK-4253,PAYLOAD,2023-04-10 06:23:57,15.08838968,0.0001337,53.2171,192.5001,93.9673,266.1472,0.00010071,1.315e-05,0.0,0 STARLINK-4253,1 53004U 22076U   23100.26663898  .00001315  00000-0  10071-3 0  9995,2 53004  53.2171 192.5001 0001337  93.9673 266.1472 15.08838968 42158,6917.884,95.438,540.673,538.824,0.0
53004.0,STARLINK-4253,PAYLOAD,2023-04-11 04:39:20,15.08844758,0.000131,53.2178,188.3353,111.9984,248.1147,0.00019106,2.755e-05,0.0,0 STARLINK-4253,1 53004U 22076U   23101.19399138  .00002755  00000-0  19106-3 0  9998,2 53004  53.2178 188.3353 0001310 111.9984 248.1147 15.08844758 42765,6917.866,95.437,540.637,538.825,0.0
53004.0,STARLINK-4253,PAYLOAD,2023-04-11 11:00:53,15.08851698,0.000125,53.2159,187.1474,97.355,262.7584,0.00030303,4.54e-05,0.0,0 STARLINK-4253,1 53004U 22076U   23101.45895063  .00004540  00000-0  30303-3 0  9991,2 53004  53.2159 187.1474 0001250  97.3550 262.7584 15.08851698 42335,6917.845,95.437,540.574,538.845,0.0
53004.0,STARLINK-4253,PAYLOAD,2023-04-12 04:30:07,15.08844042,0.0001535,53.2166,183.8795,106.4515,253.6646,5.7088e-05,6.21e-06,0.0,0 STARLINK-4253,1 53004U 22076U   23102.18759181  .00000621  00000-0  57088-4 0  9998,2 53004  53.2166 183.8795 0001535 106.4515 253.6646 15.08844042 42918,6917.868,95.437,540.795,538.671,0.0
53004.0,STARLINK-4253,PAYLOAD,2023-04-12 12:27:03,15.08840223,0.0001538,53.2179,182.3932,109.3486,250.7673,-0.00012019,-2.2e-05,0.0,0 STARLINK-4253,1 53004U 22076U   23102.51879248 -.00002200  00000-0 -12019-3 0  9993,2 53004  53.2179 182.3932 0001538 109.3486 250.7673 15.08840223 42499,6917.88,95.438,540.809,538.681,0.0
53004.0,STARLINK-4253,PAYLOAD,2023-04-13 10:42:27,15.08837181,0.0001343,53.217,178.2286,110.8121,249.3015,-4.844e-05,-1.059e-05,0.0,0 STARLINK-4253,1 53004U 22076U   23103.44615434 -.00001059  00000-0 -48440-4 0  9990,2 53004  53.2170 178.2286 0001343 110.8121 249.3015 15.08837181 42632,6917.889,95.438,540.683,538.825,0.0
53004.0,STARLINK-4253,PAYLOAD,2023-04-14 12:08:37,15.0884835,0.0001159,53.2156,173.4696,111.1873,248.9243,0.00023894,3.518e-05,0.0,0 STARLINK-4253,1 53004U 22076U   23104.50599142  .00003518  00000-0  23894-3 0  9990,2 53004  53.2156 173.4696 0001159 111.1873 248.9243 15.08848350 42796,6917.855,95.437,540.522,538.918,0.0
53004.0,STARLINK-4253,PAYLOAD,2023-04-14 13:44:00,15.08846995,0.00013,53.2168,173.1733,91.6834,268.4307,0.00021908,3.201e-05,0.0,0 STARLINK-4253,1 53004U 22076U   23104.57223266  .00003201  00000-0  21908-3 0  9991,2 53004  53.2168 173.1733 0001300  91.6834 268.4307 15.08846995 43270,6917.859,95.437,540.623,538.825,0.0
53004.0,STARLINK-4253,PAYLOAD,2023-04-15 11:59:25,15.08842513,0.00013,53.2159,169.0087,87.2817,272.8324,0.00013399,1.845e-05,0.0,0 STARLINK-4253,1 53004U 22076U   23105.49959935  .00001845  00000-0  13399-3 0  9999,2 53004  53.2159 169.0087 0001300  87.2817 272.8324 15.08842513 43414,6917.873,95.437,540.637,538.838,0.0
53004.0,STARLINK-4253,PAYLOAD,2023-04-15 21:31:44,15.0883943,0.0001638,53.2156,167.2249,67.4598,292.6568,0.00010826,1.435e-05,0.0,0 STARLINK-4253,1 53004U 22076U   23105.89704259  .00001435  00000-0  10826-3 0  9997,2 53004  53.2156 167.2249 0001638  67.4598 292.6568 15.08839430 43000,6917.882,95.438,540.88,538.614,0.0
53004.0,STARLINK-4253,PAYLOAD,2023-04-16 03:53:17,15.08839288,0.0001245,53.2162,166.0373,63.4214,296.6905,0.00011331,1.516e-05,0.0,0 STARLINK-4253,1 53004U 22076U   23106.16200249  .00001516  00000-0  11331-3 0  9990,2 53004  53.2162 166.0373 0001245  63.4214 296.6905 15.08839288 43513,6917.883,95.438,540.609,538.886,0.0
53004.0,STARLINK-4253,PAYLOAD,2023-04-16 10:14:50,15.08825848,0.000127,53.2157,164.8474,81.9433,278.1704,0.00055782,8.598e-05,0.0,0 STARLINK-4253,1 53004U 22076U   23106.42697006  .00008598  00000-0  55782-3 0  9995,2 53004  53.2157 164.8474 0001270  81.9433 278.1704 15.08825848 43082,6917.924,95.438,540.667,538.91,0.0
53004.0,STARLINK-4253,PAYLOAD,2023-04-16 15:00:59,15.08839396,0.00012,53.2157,163.9526,103.2609,256.8517,0.00059013,9.116e-05,0.0,0 STARLINK-4253,1 53004U 22076U   23106.62568297  .00009116  00000-0  59013-3 0  9994,2 53004  53.2157 163.9526 0001200 103.2609 256.8517 15.08839396 43589,6917.882,95.438,540.577,538.917,0.0
53004.0,STARLINK-4253,PAYLOAD,2023-04-16 21:22:31,15.08835071,0.0001225,53.2156,162.7622,95.0303,265.0829,-5.6281e-05,-1.183e-05,0.0,0 STARLINK-4253,1 53004U 22076U   23106.89064204 -.00001183  00000-0 -56281-4 0  9995,2 53004  53.2156 162.7622 0001225  95.0303 265.0829 15.08835071 43155,6917.895,95.438,540.608,538.913,0.0
53004.0,STARLINK-4253,PAYLOAD,2023-04-17 03:44:04,15.08833323,0.0001931,53.2152,161.5767,58.3282,301.7898,9.8602e-05,1.281e-05,0.0,0 STARLINK-4253,1 53004U 22076U   23107.15560927  .00001281  00000-0  98602-4 0  9998,2 53004  53.2152 161.5767 0001931  58.3282 301.7898 15.08833323 43668,6917.901,95.438,541.102,538.43,0.0
53004.0,STARLINK-4253,PAYLOAD,2023-04-17 10:05:37,15.08837121,0.0001786,53.2157,160.3872,63.584,296.5335,4.5388e-05,4.34e-06,0.0,0 STARLINK-4253,1 53004U 22076U   23107.42056773  .00000434  00000-0  45388-4 0  9999,2 53004  53.2157 160.3872 0001786  63.5840 296.5335 15.08837121 43233,6917.889,95.438,540.99,538.519,0.0
53004.0,STARLINK-4253,PAYLOAD,2023-04-17 14:51:46,15.08844055,0.0001661,53.2159,159.493,73.3575,286.7599,0.00014391,2.003e-05,0.0,0 STARLINK-4253,1 53004U 22076U   23107.61928336  .00002003  00000-0  14391-3 0  9996,2 53004  53.2159 159.4930 0001661  73.3575 286.7599 15.08844055 43737,6917.868,95.437,540.882,538.584,0.0
53004.0,STARLINK-4253,PAYLOAD,2023-04-18 09:56:23,15.08843484,0.0001556,53.2158,155.9227,83.1959,276.921,7.2656e-05,8.69e-06,0.0,0 STARLINK-4253,1 53004U 22076U   23108.41416347  .00000869  00000-0  72656-4 0  9996,2 53004  53.2158 155.9227 0001556  83.1959 276.9210 15.08843484 43381,6917.87,95.437,540.811,538.658,0.0
53004.0,STARLINK-4253,PAYLOAD,2023-04-18 14:42:32,15.08856389,0.0001766,53.2162,155.0297,98.9335,261.1857,-4.939e-05,-1.074e-05,0.0,0 STARLINK-4253,1 53004U 22076U   23108.61287472 -.00001074  00000-0 -49390-4 0  9993,2 53004  53.2162 155.0297 0001766  98.9335 261.1857 15.08856389 43414,6917.83,95.437,540.917,538.474,0.0
53004.0,STARLINK-4253,PAYLOAD,2023-04-19 03:25:37,15.08858756,0.0001563,53.2157,152.651,88.2528,271.8643,0.00041528,6.331e-05,0.0,0 STARLINK-4253,1 53004U 22076U   23109.14279286  .00006331  00000-0  41528-3 0  9999,2 53004  53.2157 152.6510 0001563  88.2528 271.8643 15.08858756 43961,6917.823,95.436,540.769,538.607,0.0
53004.0,STARLINK-4253,PAYLOAD,2023-04-19 08:11:45,15.08886271,0.0001786,53.2158,151.7588,109.4167,250.7018,0.0008117,0.0001267,0.0,0 STARLINK-4253,1 53004U 22076U   23109.34149917  .00012670  00000-0  81170-3 0  9998,2 53004  53.2158 151.7588 0001786 109.4167 250.7018 15.08886271 43997,6917.739,95.435,540.839,538.368,0.0
53004.0,STARLINK-4253,PAYLOAD,2023-04-19 19:19:29,15.08819187,0.0002462,53.2163,149.6759,88.1503,271.9771,-0.00040237,-6.683e-05,0.0,0 STARLINK-4253,1 53004U 22076U   23109.80520273 -.00006683  00000-0 -40237-3 0  9995,2 53004  53.2163 149.6759 0002462  88.1503 271.9771 15.08819187 43597,6917.944,95.439,541.512,538.106,0.0
53004.0,STARLINK-4253,PAYLOAD,2023-04-20 03:16:24,15.08818544,0.0001655,53.2158,148.1913,95.1323,264.9858,-0.00061339,-0.00010031,0.0,0 STARLINK-4253,1 53004U 22076U   23110.13639723 -.00010031  00000-0 -61339-3 0  9992,2 53004  53.2158 148.1913 0001655  95.1323 264.9858 15.08818544 44111,6917.946,95.439,540.956,538.666,0.0
53004.0,STARLINK-4253,PAYLOAD,2023-04-20 12:48:43,15.0882021,0.0001857,53.215,146.4076,101.1402,258.9799,-0.00057435,-9.412e-05,0.0,0 STARLINK-4253,1 53004U 22076U   23110.53383732 -.00009412  00000-0 -57435-3 0  9995,2 53004  53.2150 146.4076 0001857 101.1402 258.9799 15.08820210 43708,6917.941,95.439,541.091,538.521,0.0
53004.0,STARLINK-4253,PAYLOAD,2023-04-20 19:10:16,15.08815565,0.0001891,53.2147,145.2188,104.2863,255.8339,-0.00019746,-3.427e-05,0.0,0 STARLINK-4253,1 53004U 22076U   23110.79880203 -.00003427  00000-0 -19746-3 0  9991,2 53004  53.2147 145.2188 0001891 104.2863 255.8339 15.08815565 43745,6917.955,95.439,541.128,538.512,0.0
53004.0,STARLINK-4253,PAYLOAD,2023-04-21 06:17:59,15.08815613,0.0001968,53.2144,143.1374,106.8419,253.2789,0.00052204,8.024e-05,0.0,0 STARLINK-4253,1 53004U 22076U   23111.26249393  .00008024  00000-0  52204-3 0  9995,2 53004  53.2144 143.1374 0001968 106.8419 253.2789 15.08815613 43819,6917.955,95.439,541.181,538.458,0.0
53004.0,STARLINK-4253,PAYLOAD,2023-04-21 14:14:55,15.08833489,0.0002097,53.2144,141.6506,106.1207,254.0016,0.00096288,0.00015067,0.0,0 STARLINK-4253,1 53004U 22076U   23111.59369613  .00015067  00000-0  96288-3 0  9994,2 53004  53.2144 141.6506 0002097 106.1207 254.0016 15.08833489 43869,6917.9,95.438,541.216,538.315,0.0
53004.0,STARLINK-4253,PAYLOAD,2023-04-22 01:22:36,15.08861016,0.00017,53.2135,139.5698,97.4979,262.6206,0.0013505,0.00021283,0.0,0 STARLINK-4253,1 53004U 22076U   23112.05737024  .00021283  00000-0  13505-2 0  9998,2 53004  53.2135 139.5698 0001700  97.4979 262.6206 15.08861016 44409,6917.816,95.436,540.857,538.505,0.0
53004.0,STARLINK-4253,PAYLOAD,2023-04-22 10:54:54,15.08876366,0.0001934,53.2136,137.7845,106.2066,253.9139,0.0010841,0.00017025,0.0,0 STARLINK-4253,1 53004U 22076U   23112.45480080  .00017025  00000-0  10841-2 0  9998,2 53004  53.2136 137.7845 0001934 106.2066 253.9139 15.08876366 43994,6917.769,95.435,540.972,538.296,0.0
